{
  "type": "FeatureCollection",
  "features": [
    {
      "type": "Feature",
      "properties": {
        "norad_id": 38857,
        "name": "GSAT0103 (GALILEO-FM3)",
        "group": "gnss",
        "lat": -17.024110486342767,
        "lon": -61.53009823942125,
        "alt_km": 23221.545013513103,
        "timestamp": "2025-12-21T11:31:43.097079+00:00",
        "meta_object_name": "GSAT0103 (GALILEO-FM3)",
        "meta_object_id": "2012-055A",
        "meta_epoch": "2025-12-18T05:17:11.481792",
        "meta_mean_motion": 1.70473412,
        "meta_eccentricity": 0.00028558,
        "meta_inclination": 55.6954,
        "meta_ra_of_asc_node": 106.5161,
        "meta_arg_of_pericenter": 269.0808,
        "meta_mean_anomaly": 90.8455,
        "meta_ephemeris_type": 0,
        "meta_classification_type": "U",
        "meta_norad_cat_id": 38857,
        "meta_element_set_no": 999,
        "meta_rev_at_epoch": 8192,
        "meta_bstar": 0,
        "meta_mean_motion_dot": -7e-08,
        "meta_mean_motion_ddot": 0,
        "tle_line1": "1 38857U 12055A   25352.22027178 -.00000007  00000+0  00000+0 0  9996",
        "tle_line2": "2 38857  55.6954 106.5161 0002855 269.0808  90.8455  1.70473412 81920"
      },
      "geometry": {
        "type": "Point",
        "coordinates": [
          -61.53009823942125,
          -17.024110486342767
        ]
      }
    },
    {
      "type": "Feature",
      "properties": {
        "norad_id": 38953,
        "name": "BEIDOU-2 G6 (C02)",
        "group": "gnss",
        "lat": -3.978422555240808,
        "lon": -12.867597992325809,
        "alt_km": 35755.01161605043,
        "timestamp": "2025-12-21T11:31:43.097090+00:00",
        "meta_object_name": "BEIDOU-2 G6 (C02)",
        "meta_object_id": "2012-059A",
        "meta_epoch": "2025-12-21T01:36:53.216640",
        "meta_mean_motion": 1.00268834,
        "meta_eccentricity": 0.000827,
        "meta_inclination": 3.9692,
        "meta_ra_of_asc_node": 75.4251,
        "meta_arg_of_pericenter": 292.3777,
        "meta_mean_anomaly": 190.2509,
        "meta_ephemeris_type": 0,
        "meta_classification_type": "U",
        "meta_norad_cat_id": 38953,
        "meta_element_set_no": 999,
        "meta_rev_at_epoch": 4812,
        "meta_bstar": 0,
        "meta_mean_motion_dot": -1.54e-06,
        "meta_mean_motion_ddot": 0,
        "tle_line1": "1 38953U 12059A   25355.06728260 -.00000154  00000+0  00000+0 0  9995",
        "tle_line2": "2 38953   3.9692  75.4251 0008270 292.3777 190.2509  1.00268834 48120"
      },
      "geometry": {
        "type": "Point",
        "coordinates": [
          -12.867597992325809,
          -3.978422555240808
        ]
      }
    },
    {
      "type": "Feature",
      "properties": {
        "norad_id": 38977,
        "name": "LUCH 5B (SDCM/PRN 125)",
        "group": "gnss",
        "lat": -2.662865540027193,
        "lon": -113.32418059598554,
        "alt_km": 35758.32418257777,
        "timestamp": "2025-12-21T11:31:43.097102+00:00",
        "meta_object_name": "LUCH 5B (SDCM/PRN 125)",
        "meta_object_id": "2012-061A",
        "meta_epoch": "2025-12-20T23:25:23.453760",
        "meta_mean_motion": 1.00272308,
        "meta_eccentricity": 0.0006618,
        "meta_inclination": 10.0979,
        "meta_ra_of_asc_node": 51.6268,
        "meta_arg_of_pericenter": 195.3899,
        "meta_mean_anomaly": 177.8059,
        "meta_ephemeris_type": 0,
        "meta_classification_type": "U",
        "meta_norad_cat_id": 38977,
        "meta_element_set_no": 999,
        "meta_rev_at_epoch": 4782,
        "meta_bstar": 0,
        "meta_mean_motion_dot": -1.21e-06,
        "meta_mean_motion_ddot": 0,
        "tle_line1": "1 38977U 12061A   25354.97596590 -.00000121  00000+0  00000+0 0  9996",
        "tle_line2": "2 38977  10.0979  51.6268 0006618 195.3899 177.8059  1.00272308 47826"
      },
      "geometry": {
        "type": "Point",
        "coordinates": [
          -113.32418059598554,
          -2.662865540027193
        ]
      }
    },
    {
      "type": "Feature",
      "properties": {
        "norad_id": 39155,
        "name": "COSMOS 2485 (747)",
        "group": "gnss",
        "lat": -34.15318763587938,
        "lon": 61.441562701302345,
        "alt_km": 19136.040232866988,
        "timestamp": "2025-12-21T11:31:43.097114+00:00",
        "meta_object_name": "COSMOS 2485 (747)",
        "meta_object_id": "2013-019A",
        "meta_epoch": "2025-12-20T02:56:15.241632",
        "meta_mean_motion": 2.1310322,
        "meta_eccentricity": 0.0024876,
        "meta_inclination": 65.3174,
        "meta_ra_of_asc_node": 79.6189,
        "meta_arg_of_pericenter": 230.2075,
        "meta_mean_anomaly": 129.6042,
        "meta_ephemeris_type": 0,
        "meta_classification_type": "U",
        "meta_norad_cat_id": 39155,
        "meta_element_set_no": 999,
        "meta_rev_at_epoch": 9846,
        "meta_bstar": 0,
        "meta_mean_motion_dot": -2e-07,
        "meta_mean_motion_ddot": 0,
        "tle_line1": "1 39155U 13019A   25354.12239863 -.00000020  00000+0  00000+0 0  9991",
        "tle_line2": "2 39155  65.3174  79.6189 0024876 230.2075 129.6042  2.13103220 98462"
      },
      "geometry": {
        "type": "Point",
        "coordinates": [
          61.441562701302345,
          -34.15318763587938
        ]
      }
    },
    {
      "type": "Feature",
      "properties": {
        "norad_id": 39166,
        "name": "GPS BIIF-4  (PRN 27)",
        "group": "gnss",
        "lat": -24.583958251197735,
        "lon": 115.12718927255818,
        "alt_km": 20533.773841476515,
        "timestamp": "2025-12-21T11:31:43.097125+00:00",
        "meta_object_name": "GPS BIIF-4  (PRN 27)",
        "meta_object_id": "2013-023A",
        "meta_epoch": "2025-12-19T04:43:12.887616",
        "meta_mean_motion": 2.00564719,
        "meta_eccentricity": 0.0138305,
        "meta_inclination": 54.6464,
        "meta_ra_of_asc_node": 276.3057,
        "meta_arg_of_pericenter": 48.6894,
        "meta_mean_anomaly": 312.5202,
        "meta_ephemeris_type": 0,
        "meta_classification_type": "U",
        "meta_norad_cat_id": 39166,
        "meta_element_set_no": 999,
        "meta_rev_at_epoch": 9227,
        "meta_bstar": 0,
        "meta_mean_motion_dot": -2.9e-07,
        "meta_mean_motion_ddot": 0,
        "tle_line1": "1 39166U 13023A   25353.19667694 -.00000029  00000+0  00000+0 0  9990",
        "tle_line2": "2 39166  54.6464 276.3057 0138305  48.6894 312.5202  2.00564719 92274"
      },
      "geometry": {
        "type": "Point",
        "coordinates": [
          115.12718927255818,
          -24.583958251197735
        ]
      }
    },
    {
      "type": "Feature",
      "properties": {
        "norad_id": 39199,
        "name": "IRNSS-1A",
        "group": "gnss",
        "lat": -33.35015265188383,
        "lon": -45.493037524820586,
        "alt_km": 35711.286289945936,
        "timestamp": "2025-12-21T11:31:43.097137+00:00",
        "meta_object_name": "IRNSS-1A",
        "meta_object_id": "2013-034A",
        "meta_epoch": "2025-12-18T18:41:43.776960",
        "meta_mean_motion": 1.00272479,
        "meta_eccentricity": 0.0024472,
        "meta_inclination": 35.3183,
        "meta_ra_of_asc_node": 66.4661,
        "meta_arg_of_pericenter": 211.0525,
        "meta_mean_anomaly": 145.3931,
        "meta_ephemeris_type": 0,
        "meta_classification_type": "U",
        "meta_norad_cat_id": 39199,
        "meta_element_set_no": 999,
        "meta_rev_at_epoch": 4555,
        "meta_bstar": 0,
        "meta_mean_motion_dot": 6.5e-07,
        "meta_mean_motion_ddot": 0,
        "tle_line1": "1 39199U 13034A   25352.77897890  .00000065  00000+0  00000+0 0  9993",
        "tle_line2": "2 39199  35.3183  66.4661 0024472 211.0525 145.3931  1.00272479 45557"
      },
      "geometry": {
        "type": "Point",
        "coordinates": [
          -45.493037524820586,
          -33.35015265188383
        ]
      }
    },
    {
      "type": "Feature",
      "properties": {
        "norad_id": 39533,
        "name": "GPS BIIF-5  (PRN 30)",
        "group": "gnss",
        "lat": -25.685626849130486,
        "lon": -2.6809778402730227,
        "alt_km": 19979.709060522964,
        "timestamp": "2025-12-21T11:31:43.097148+00:00",
        "meta_object_name": "GPS BIIF-5  (PRN 30)",
        "meta_object_id": "2014-008A",
        "meta_epoch": "2025-12-20T04:30:10.868256",
        "meta_mean_motion": 2.00559606,
        "meta_eccentricity": 0.00799985,
        "meta_inclination": 53.6333,
        "meta_ra_of_asc_node": 156.6204,
        "meta_arg_of_pericenter": 226.3975,
        "meta_mean_anomaly": 132.9264,
        "meta_ephemeris_type": 0,
        "meta_classification_type": "U",
        "meta_norad_cat_id": 39533,
        "meta_element_set_no": 999,
        "meta_rev_at_epoch": 8609,
        "meta_bstar": 0,
        "meta_mean_motion_dot": 6.4e-07,
        "meta_mean_motion_ddot": 0,
        "tle_line1": "1 39533U 14008A   25354.18762579  .00000064  00000+0  00000+0 0  9998",
        "tle_line2": "2 39533  53.6333 156.6204 0079998 226.3975 132.9264  2.00559606 86091"
      },
      "geometry": {
        "type": "Point",
        "coordinates": [
          -2.6809778402730227,
          -25.685626849130486
        ]
      }
    }
  ]
}